{"type": "FeatureCollection", "features": [{"type": "Feature", "properties": {"name": "Kokrajhar", "state": "Assam"}, "geometry": {"type": "Polygon", "coordinates": [[[89.88, 26.7573], [90.0569, 26.7321], [90.2278, 26.6705], [90.2359, 26.5147], [90.3584, 26.4], [90.3294, 26.2552], [90.1782, 26.1681], [90.0775, 26.0291], [89.88, 26.0678], [89.7321, 26.1222], [89.5475, 26.1414], [89.4044, 26.2468], [89.457, 26.4], [89.4967, 26.5235], [89.5532, 26.6542], [89.7331, 26.6758], [89.88, 26.7573]]]}}, {"type": "Feature", "properties": {"name": "Chirang", "state": "Assam"}, "geometry": {"type": "Polygon", "coordinates": [[[90.22, 26.7312], [90.3142, 26.7275], [90.3973, 26.6773], [90.4808, 26.608], [90.4887, 26.5], [90.4198, 26.4172], [90.3814, 26.3386], [90.3119, 26.278], [90.22, 26.253], [90.1111, 26.2372], [90.0676, 26.3476], [90.007, 26.4118], [89.9453, 26.5], [89.9779, 26.6003], [90.0549, 26.6651], [90.1114, 26.7622], [90.22, 26.7312]]]}}, {"type": "Feature", "properties": {"name": "Bongaigaon", "state": "Assam"}, "geometry": {"type": "Polygon", "coordinates": [[[90.56, 26.6643], [90.6444, 26.6739], [90.7286, 26.6386], [90.773, 26.5582], [90.7642, 26.47], [90.748, 26.3921], [90.731, 26.299], [90.6359, 26.2869], [90.56, 26.2421], [90.4862, 26.2917], [90.411, 26.321], [90.358, 26.3863], [90.3657, 26.47], [90.3567, 26.5542], [90.4114, 26.6186], [90.4723, 26.6818], [90.56, 26.6643]]]}}, {"type": "Feature", "properties": {"name": "Dhubri", "state": "Assam"}, "geometry": {"type": "Polygon", "coordinates": [[[89.98, 26.3299], [90.1332, 26.3371], [90.2349, 26.2385], [90.3189, 26.1403], [90.2775, 26.02], [90.2587, 25.921], [90.2512, 25.7875], [90.1151, 25.7403], [89.98, 25.7632], [89.8344, 25.7187], [89.754, 25.8263], [89.6207, 25.8925], [89.6594, 26.02], [89.6741, 26.1286], [89.7585, 26.2099], [89.8328, 26.3246], [89.98, 26.3299]]]}}, {"type": "Feature", "properties": {"name": "South Salmara-Mankachar", "state": "Assam"}, "geometry": {"type": "Polygon", "coordinates": [[[90.18, 26.1361], [90.2493, 26.1394], [90.305, 26.1042], [90.3468, 26.0576], [90.3762, 26.0], [90.3368, 25.9459], [90.2977, 25.9019], [90.2557, 25.8477], [90.18, 25.828], [90.1055, 25.8502], [90.0355, 25.8796], [89.9903, 25.9345], [90.0092, 26.0], [90.0337, 26.0505], [90.0531, 26.1057], [90.1031, 26.1548], [90.18, 26.1361]]]}}, {"type": "Feature", "properties": {"name": "Goalpara", "state": "Assam"}, "geometry": {"type": "Polygon", "coordinates": [[[90.62, 26.4217], [90.7201, 26.3598], [90.8037, 26.3144], [90.881, 26.2549], [90.9244, 26.17], [90.8422, 26.0977], [90.8299, 26.0051], [90.7243, 25.9722], [90.62, 25.9203], [90.5222, 25.9844], [90.4375, 26.0266], [90.3846, 26.0934], [90.3803, 26.17], [90.3318, 26.2638], [90.4024, 26.341], [90.509, 26.3806], [90.62, 26.4217]]]}}, {"type": "Feature", "properties": {"name": "Barpeta", "state": "Assam"}, "geometry": {"type": "Polygon", "coordinates": [[[91.0, 26.591], [91.1282, 26.578], [91.1873, 26.4761], [91.2688, 26.4128], [91.3396, 26.32], [91.2988, 26.2169], [91.223, 26.1342], [91.1176, 26.0835], [91.0, 26.04], [90.8972, 26.1133], [90.8178, 26.1681], [90.7636, 26.2384], [90.736, 26.32], [90.6954, 26.4251], [90.8165, 26.4729], [90.8728, 26.5759], [91.0, 26.591]]]}}, {"type": "Feature", "properties": {"name": "Bajali", "state": "Assam"}, "geometry": {"type": "Polygon", "coordinates": [[[91.05, 26.544], [91.1028, 26.5219], [91.1669, 26.5135], [91.1678, 26.459], [91.1833, 26.42], [91.209, 26.3673], [91.143, 26.3456], [91.1048, 26.3141], [91.05, 26.3004], [90.9852, 26.2948], [90.9465, 26.3372], [90.9081, 26.373], [90.8973, 26.42], [90.9089, 26.4667], [90.9331, 26.5135], [90.9979, 26.5206], [91.05, 26.544]]]}}, {"type": "Feature", "properties": {"name": "Nalbari", "state": "Assam"}, "geometry": {"type": "Polygon", "coordinates": [[[91.44, 26.6232], [91.5149, 26.6028], [91.5695, 26.5566], [91.5971, 26.4986], [91.631, 26.44], [91.6392, 26.3657], [91.5746, 26.3188], [91.5223, 26.2612], [91.44, 26.2751], [91.3582, 26.2622], [91.2931, 26.3078], [91.2646, 26.3746], [91.2364, 26.44], [91.2286, 26.5188], [91.2816, 26.5826], [91.3674, 26.5978], [91.44, 26.6232]]]}}, {"type": "Feature", "properties": {"name": "Baksa", "state": "Assam"}, "geometry": {"type": "Polygon", "coordinates": [[[91.25, 26.9176], [91.3527, 26.897], [91.4432, 26.858], [91.4885, 26.7906], [91.493, 26.72], [91.4745, 26.6536], [91.4224, 26.5968], [91.351, 26.5458], [91.25, 26.547], [91.148, 26.5441], [91.0229, 26.5578], [91.0224, 26.6526], [90.9927, 26.72], [90.9983, 26.7945], [91.0764, 26.844], [91.1525, 26.8881], [91.25, 26.9176]]]}}, {"type": "Feature", "properties": {"name": "Tamulpur", "state": "Assam"}, "geometry": {"type": "Polygon", "coordinates": [[[91.35, 26.7479], [91.4201, 26.7611], [91.4632, 26.7143], [91.5043, 26.6733], [91.523, 26.62], [91.4998, 26.5683], [91.4849, 26.5076], [91.4152, 26.4889], [91.35, 26.4871], [91.2724, 26.464], [91.2136, 26.5063], [91.2081, 26.571], [91.1765, 26.62], [91.1922, 26.6745], [91.2246, 26.7245], [91.2726, 26.7756], [91.35, 26.7479]]]}}, {"type": "Feature", "properties": {"name": "Kamrup Rural", "state": "Assam"}, "geometry": {"type": "Polygon", "coordinates": [[[91.58, 26.4677], [91.6636, 26.4219], [91.7647, 26.4047], [91.8241, 26.3211], [91.8225, 26.22], [91.8103, 26.1246], [91.7419, 26.0581], [91.6742, 25.9925], [91.58, 25.9602], [91.4823, 25.9842], [91.408, 26.048], [91.3636, 26.1304], [91.3645, 26.22], [91.3809, 26.3025], [91.3772, 26.4228], [91.4878, 26.4427], [91.58, 26.4677]]]}}, {"type": "Feature", "properties": {"name": "Kamrup Metropolitan", "state": "Assam"}, "geometry": {"type": "Polygon", "coordinates": [[[91.74, 26.2578], [91.7914, 26.2392], [91.834, 26.2152], [91.8715, 26.1836], [91.9066, 26.14], [91.8686, 26.0974], [91.833, 26.0656], [91.7977, 26.0285], [91.74, 26.0139], [91.6798, 26.0238], [91.6378, 26.0582], [91.6081, 26.0963], [91.5738, 26.14], [91.5827, 26.1921], [91.6349, 26.2241], [91.6876, 26.2412], [91.74, 26.2578]]]}}, {"type": "Feature", "properties": {"name": "Darrang", "state": "Assam"}, "geometry": {"type": "Polygon", "coordinates": [[[92.02, 26.7193], [92.1039, 26.6783], [92.2084, 26.6658], [92.2572, 26.5865], [92.291, 26.5], [92.2357, 26.4214], [92.2143, 26.329], [92.1102, 26.3083], [92.02, 26.3018], [91.9378, 26.3254], [91.8247, 26.3281], [91.8036, 26.4211], [91.7737, 26.5], [91.8154, 26.5746], [91.83, 26.6672], [91.9217, 26.7087], [92.02, 26.7193]]]}}, {"type": "Feature", "properties": {"name": "Udalguri", "state": "Assam"}, "geometry": {"type": "Polygon", "coordinates": [[[92.1, 26.9512], [92.1982, 26.9493], [92.2719, 26.9028], [92.3199, 26.8451], [92.3573, 26.78], [92.3812, 26.6968], [92.3069, 26.6322], [92.2059, 26.5974], [92.1, 26.604], [92.0073, 26.6202], [91.8872, 26.628], [91.8755, 26.7136], [91.7805, 26.78], [91.8281, 26.8604], [91.8812, 26.9363], [91.9874, 26.9742], [92.1, 26.9512]]]}}, {"type": "Feature", "properties": {"name": "Morigaon", "state": "Assam"}, "geometry": {"type": "Polygon", "coordinates": [[[92.35, 26.4578], [92.4238, 26.412], [92.499, 26.3855], [92.5289, 26.3174], [92.5951, 26.25], [92.5313, 26.1817], [92.5098, 26.1048], [92.4375, 26.058], [92.35, 26.0674], [92.2539, 26.0392], [92.1809, 26.0963], [92.1608, 26.1787], [92.1458, 26.25], [92.1333, 26.3316], [92.2024, 26.3842], [92.2782, 26.4076], [92.35, 26.4578]]]}}, {"type": "Feature", "properties": {"name": "Nagaon", "state": "Assam"}, "geometry": {"type": "Polygon", "coordinates": [[[92.69, 26.6716], [92.8357, 26.6139], [92.9644, 26.5558], [93.0972, 26.4765], [93.0936, 26.35], [93.023, 26.2466], [92.933, 26.1678], [92.8362, 26.0853], [92.69, 26.023], [92.5264, 26.0537], [92.3732, 26.1124], [92.3615, 26.2479], [92.3428, 26.35], [92.2961, 26.4724], [92.4275, 26.5469], [92.5268, 26.6455], [92.69, 26.6716]]]}}, {"type": "Feature", "properties": {"name": "Hojai", "state": "Assam"}, "geometry": {"type": "Polygon", "coordinates": [[[92.85, 26.0565], [92.9319, 26.0118], [93.0266, 25.9945], [93.0667, 25.9234], [93.0667, 25.85], [93.0624, 25.778], [93.0, 25.7273], [92.9299, 25.6922], [92.85, 25.6522], [92.7714, 25.6947], [92.6842, 25.7143], [92.6425, 25.7797], [92.6571, 25.85], [92.6236, 25.9267], [92.6893, 25.9815], [92.7688, 26.0103], [92.85, 26.0565]]]}}, {"type": "Feature", "properties": {"name": "Sonitpur", "state": "Assam"}, "geometry": {"type": "Polygon", "coordinates": [[[92.95, 26.9926], [93.0771, 26.9455], [93.2235, 26.9188], [93.2268, 26.7917], [93.3179, 26.7], [93.2472, 26.6015], [93.1975, 26.502], [93.0679, 26.4724], [92.95, 26.4217], [92.8357, 26.4793], [92.6825, 26.486], [92.6247, 26.5922], [92.6179, 26.7], [92.648, 26.8001], [92.7233, 26.8814], [92.8285, 26.9346], [92.95, 26.9926]]]}}, {"type": "Feature", "properties": {"name": "Biswanath", "state": "Assam"}, "geometry": {"type": "Polygon", "coordinates": [[[93.2, 26.9731], [93.2924, 26.9052], [93.4259, 26.9075], [93.4672, 26.817], [93.438, 26.73], [93.4354, 26.6534], [93.4182, 26.5586], [93.2998, 26.5408], [93.2, 26.5417], [93.0855, 26.5127], [92.9794, 26.5567], [92.9173, 26.638], [92.9444, 26.73], [92.9545, 26.8099], [93.0175, 26.8734], [93.1015, 26.9168], [93.2, 26.9731]]]}}, {"type": "Feature", "properties": {"name": "West Karbi Anglong", "state": "Assam"}, "geometry": {"type": "Polygon", "coordinates": [[[93.2, 26.0433], [93.3083, 26.0178], [93.4, 25.9667], [93.4464, 25.8851], [93.5009, 25.8], [93.4397, 25.7172], [93.4325, 25.6063], [93.301, 25.5967], [93.2, 25.5493], [93.0904, 25.5794], [93.0076, 25.6397], [92.8912, 25.6934], [92.9387, 25.8], [92.9478, 25.8871], [93.0133, 25.9556], [93.0769, 26.0476], [93.2, 26.0433]]]}}, {"type": "Feature", "properties": {"name": "Karbi Anglong", "state": "Assam"}, "geometry": {"type": "Polygon", "coordinates": [[[93.56, 26.4264], [93.768, 26.4017], [93.9401, 26.3041], [94.0233, 26.1535], [94.0915, 26.0], [93.979, 25.8612], [93.9051, 25.7239], [93.776, 25.5828], [93.56, 25.5616], [93.3669, 25.6271], [93.2255, 25.7324], [93.1147, 25.8524], [93.066, 26.0], [93.1064, 26.1503], [93.1545, 26.3244], [93.3715, 26.364], [93.56, 26.4264]]]}}, {"type": "Feature", "properties": {"name": "Golaghat", "state": "Assam"}, "geometry": {"type": "Polygon", "coordinates": [[[93.96, 26.7595], [94.0621, 26.7253], [94.1766, 26.7005], [94.2205, 26.6099], [94.2879, 26.52], [94.2471, 26.4209], [94.1823, 26.3347], [94.061, 26.3167], [93.96, 26.2903], [93.8369, 26.2724], [93.7288, 26.3273], [93.6995, 26.4301], [93.6636, 26.52], [93.6537, 26.6257], [93.7434, 26.7005], [93.8435, 26.7544], [93.96, 26.7595]]]}}, {"type": "Feature", "properties": {"name": "Jorhat", "state": "Assam"}, "geometry": {"type": "Polygon", "coordinates": [[[94.22, 26.974], [94.331, 26.9606], [94.396, 26.8883], [94.4515, 26.8254], [94.4639, 26.75], [94.4422, 26.6777], [94.3889, 26.6173], [94.3265, 26.548], [94.22, 26.5432], [94.1058, 26.5333], [94.0214, 26.594], [93.9629, 26.6663], [93.9543, 26.75], [93.9256, 26.8458], [94.0291, 26.9], [94.1154, 26.9484], [94.22, 26.974]]]}}, {"type": "Feature", "properties": {"name": "Majuli", "state": "Assam"}, "geometry": {"type": "Polygon", "coordinates": [[[94.17, 27.0866], [94.2319, 27.0496], [94.2973, 27.0349], [94.3592, 27.0023], [94.3532, 26.95], [94.3443, 26.9019], [94.308, 26.858], [94.2391, 26.8388], [94.17, 26.8368], [94.1104, 26.8541], [94.0542, 26.8728], [93.9798, 26.8975], [94.0013, 26.95], [94.0182, 26.9919], [94.0248, 27.0468], [94.1065, 27.0522], [94.17, 27.0866]]]}}, {"type": "Feature", "properties": {"name": "Sivasagar", "state": "Assam"}, "geometry": {"type": "Polygon", "coordinates": [[[94.63, 27.2278], [94.7462, 27.2137], [94.851, 27.1642], [94.893, 27.0708], [94.9534, 26.98], [94.9113, 26.8829], [94.8211, 26.8207], [94.7606, 26.7172], [94.63, 26.7015], [94.5066, 26.7317], [94.3969, 26.7857], [94.3753, 26.8921], [94.3327, 26.98], [94.3337, 27.0823], [94.395, 27.1759], [94.5025, 27.2366], [94.63, 27.2278]]]}}, {"type": "Feature", "properties": {"name": "Charaideo", "state": "Assam"}, "geometry": {"type": "Polygon", "coordinates": [[[95.0, 27.2079], [95.0779, 27.2038], [95.1383, 27.1632], [95.1746, 27.1092], [95.2523, 27.05], [95.1892, 26.9859], [95.1514, 26.9262], [95.0751, 26.9017], [95.0, 26.8441], [94.9257, 26.9032], [94.8463, 26.9242], [94.815, 26.9873], [94.7701, 27.05], [94.8096, 27.1145], [94.8379, 27.1826], [94.9236, 27.2008], [95.0, 27.2079]]]}}, {"type": "Feature", "properties": {"name": "Dibrugarh", "state": "Assam"}, "geometry": {"type": "Polygon", "coordinates": [[[94.91, 27.7085], [95.0351, 27.6915], [95.133, 27.6335], [95.1497, 27.5428], [95.1686, 27.47], [95.1506, 27.3969], [95.1508, 27.2934], [95.0193, 27.2765], [94.91, 27.25], [94.8035, 27.2814], [94.6724, 27.2958], [94.6661, 27.3959], [94.5803, 27.47], [94.6486, 27.5494], [94.6877, 27.633], [94.8021, 27.6611], [94.91, 27.7085]]]}}, {"type": "Feature", "properties": {"name": "Lakhimpur", "state": "Assam"}, "geometry": {"type": "Polygon", "coordinates": [[[94.1, 27.5125], [94.2327, 27.4864], [94.3779, 27.4523], [94.3952, 27.3278], [94.4637, 27.23], [94.3894, 27.1341], [94.3809, 27.0053], [94.2347, 26.9698], [94.1, 26.9256], [93.9697, 26.9783], [93.8822, 27.0558], [93.7825, 27.1248], [93.7699, 27.23], [93.7912, 27.3323], [93.8198, 27.4541], [93.9596, 27.5011], [94.1, 27.5125]]]}}, {"type": "Feature", "properties": {"name": "Dhemaji", "state": "Assam"}, "geometry": {"type": "Polygon", "coordinates": [[[94.56, 27.7357], [94.671, 27.6933], [94.7842, 27.6569], [94.8596, 27.5734], [94.8564, 27.47], [94.8613, 27.366], [94.7562, 27.3065], [94.661, 27.2667], [94.56, 27.2515], [94.44, 27.2286], [94.3644, 27.307], [94.2812, 27.3738], [94.269, 27.47], [94.2429, 27.5794], [94.3396, 27.6537], [94.439, 27.7134], [94.56, 27.7357]]]}}, {"type": "Feature", "properties": {"name": "Tinsukia", "state": "Assam"}, "geometry": {"type": "Polygon", "coordinates": [[[95.36, 27.7902], [95.5132, 27.7859], [95.6335, 27.7088], [95.726, 27.6113], [95.6596, 27.49], [95.6572, 27.3915], [95.6416, 27.2647], [95.4988, 27.222], [95.36, 27.1714], [95.2445, 27.267], [95.0821, 27.2677], [95.056, 27.3893], [94.9974, 27.49], [95.0473, 27.5936], [95.1133, 27.6874], [95.2457, 27.7107], [95.36, 27.7902]]]}}, {"type": "Feature", "properties": {"name": "Dima Hasao", "state": "Assam"}, "geometry": {"type": "Polygon", "coordinates": [[[93.01, 25.9865], [93.2105, 25.9357], [93.3317, 25.7896], [93.411, 25.6495], [93.573, 25.5], [93.4276, 25.3443], [93.4049, 25.1446], [93.2019, 25.083], [93.01, 25.0864], [92.8141, 25.0743], [92.6395, 25.1665], [92.5176, 25.3164], [92.441, 25.5], [92.5966, 25.6541], [92.6066, 25.8631], [92.8439, 25.8609], [93.01, 25.9865]]]}}, {"type": "Feature", "properties": {"name": "Cachar", "state": "Assam"}, "geometry": {"type": "Polygon", "coordinates": [[[92.82, 25.1477], [92.9565, 25.0837], [93.0927, 25.0381], [93.1674, 24.9351], [93.2608, 24.82], [93.1397, 24.7141], [93.119, 24.5808], [92.9914, 24.4889], [92.82, 24.5442], [92.6545, 24.5004], [92.5032, 24.5666], [92.4172, 24.6865], [92.432, 24.82], [92.4992, 24.9263], [92.5236, 25.0571], [92.6825, 25.0855], [92.82, 25.1477]]]}}, {"type": "Feature", "properties": {"name": "Hailakandi", "state": "Assam"}, "geometry": {"type": "Polygon", "coordinates": [[[92.56, 24.8471], [92.621, 24.8028], [92.706, 24.8017], [92.7019, 24.729], [92.7621, 24.68], [92.7273, 24.6223], [92.6709, 24.5876], [92.6295, 24.5402], [92.56, 24.5313], [92.4994, 24.558], [92.4278, 24.5698], [92.3877, 24.6205], [92.3778, 24.68], [92.4097, 24.7319], [92.4232, 24.794], [92.4922, 24.8165], [92.56, 24.8471]]]}}, {"type": "Feature", "properties": {"name": "Sribhumi", "state": "Assam"}, "geometry": {"type": "Polygon", "coordinates": [[[92.25, 25.129], [92.3741, 25.1197], [92.4545, 25.0404], [92.4956, 24.9548], [92.5149, 24.87], [92.5089, 24.7806], [92.4857, 24.6736], [92.3662, 24.6363], [92.25, 24.6185], [92.1207, 24.6099], [92.0181, 24.6768], [91.9969, 24.7827], [91.9878, 24.87], [92.0053, 24.9545], [92.0379, 25.0468], [92.1225, 25.1266], [92.25, 25.129]]]}}]}