{
"type": "FeatureCollection",
"name": "puducherry-ac",
"crs": { "type": "name", "properties": { "name": "urn:ogc:def:crs:OGC:1.3:CRS84" } },
"features": [
{ "type": "Feature", "properties": { "ac_no": 1, "name": "Mannadipet", "district": "PUDUCHERRY", "AC_NO": 1, "AC_NAME": "Mannadipet", "DIST_NAME": "PONDICHERRY" }, "geometry": { "type": "MultiPolygon", "coordinates": [ [ [ [ 79.627881618641823, 12.031789054421381 ], [ 79.651361541302151, 12.02229862847895 ], [ 79.642327976355091, 11.999291375996279 ], [ 79.635991790288926, 11.996032146566336 ], [ 79.639986665152549, 11.992681758256595 ], [ 79.636370996624237, 11.977815269659004 ], [ 79.648323020790826, 11.967328520794638 ], [ 79.647278889908875, 11.953428664001706 ], [ 79.642219537901383, 11.953894719665641 ], [ 79.642687766327413, 11.9421174346719 ], [ 79.64786819675993, 11.94455248311067 ], [ 79.645750860813621, 11.941256432738214 ], [ 79.628488115134473, 11.945184478081273 ], [ 79.627469992646127, 11.968075015649504 ], [ 79.618540445984877, 11.970481882932575 ], [ 79.624498313346521, 11.976001859598171 ], [ 79.624350135650275, 11.981776902881791 ], [ 79.617106831315255, 11.989568649773389 ], [ 79.623591351559696, 11.989278273073865 ], [ 79.626246875992592, 12.000381581844579 ], [ 79.618878110836192, 12.001277937926545 ], [ 79.620974445814056, 12.014301947676813 ], [ 79.629244993561656, 12.018691999036548 ], [ 79.627881618641823, 12.031789054421381 ] ] ], [ [ [ 79.692759713789826, 12.035293214210526 ], [ 79.704765459858152, 12.031984924964377 ], [ 79.702807726595381, 12.011071045992026 ], [ 79.719603966050272, 11.992169294877101 ], [ 79.685413544099845, 11.99162119316361 ], [ 79.680834911202226, 11.983344830399631 ], [ 79.673849953312754, 11.995053006990702 ], [ 79.662528894393006, 11.989499114192824 ], [ 79.65693933268409, 11.991563717491601 ], [ 79.661360678652443, 12.012296083597448 ], [ 79.672225529484649, 12.009695395326276 ], [ 79.676477138309338, 12.021572550033227 ], [ 79.684176710087172, 12.021704185599731 ], [ 79.692759713789826, 12.035293214210526 ] ] ] ] } },
{ "type": "Feature", "properties": { "ac_no": 2, "name": "Thirubhuvanai", "district": "PUDUCHERRY", "AC_NO": 2, "AC_NAME": "Thirubhuvanai (SC)", "DIST_NAME": "PONDICHERRY" }, "geometry": { "type": "MultiPolygon", "coordinates": [ [ [ [ 79.658585286282005, 11.94457156312717 ], [ 79.660693582243084, 11.937078624079277 ], [ 79.670256728265429, 11.935514512384884 ], [ 79.668852088852873, 11.918413859611974 ], [ 79.656042157319746, 11.912897449657635 ], [ 79.655885425272231, 11.907937643607397 ], [ 79.641061271360627, 11.907674660257442 ], [ 79.640621857212977, 11.902195933695452 ], [ 79.629833390298757, 11.901584383912223 ], [ 79.625897385955682, 11.905915650187183 ], [ 79.628323326060695, 11.919575778299588 ], [ 79.618424991020561, 11.926086636988771 ], [ 79.618904089552132, 11.943223697016037 ], [ 79.628488115134473, 11.945184478081273 ], [ 79.645750860813621, 11.941256432738214 ], [ 79.64786819675993, 11.94455248311067 ], [ 79.651953788036963, 11.9435897093976 ], [ 79.652980977490188, 11.948220361780329 ], [ 79.658585286282005, 11.94457156312717 ] ] ], [ [ [ 79.696516354646121, 11.962627901156736 ], [ 79.700063718765648, 11.962763964985072 ], [ 79.701219749591814, 11.951151813505419 ], [ 79.707962974211966, 11.9440945815997 ], [ 79.711112256125773, 11.933056494361779 ], [ 79.697240880862012, 11.941759851635879 ], [ 79.691597277992059, 11.951351023231211 ], [ 79.696516354646121, 11.962627901156736 ] ] ], [ [ [ 79.686486227557396, 11.973207077844393 ], [ 79.684607218248573, 11.953355433106822 ], [ 79.673265278869565, 11.947859207536453 ], [ 79.654659132213226, 11.953452879147108 ], [ 79.653793510462208, 11.96060217285202 ], [ 79.659982983827717, 11.958358227650137 ], [ 79.662164703138615, 11.96908749669069 ], [ 79.676660113473531, 11.968094037210108 ], [ 79.686486227557396, 11.973207077844393 ] ] ] ] } },
{ "type": "Feature", "properties": { "ac_no": 3, "name": "Oussudu", "district": "PUDUCHERRY", "AC_NO": 3, "AC_NAME": "Oussudu (SC)", "DIST_NAME": "PONDICHERRY" }, "geometry": { "type": "MultiPolygon", "coordinates": [ [ [ [ 79.769715734593547, 11.943996032091263 ], [ 79.77050467205305, 11.93575117797451 ], [ 79.764889264727856, 11.933329667929854 ], [ 79.769538291159279, 11.928953458035721 ], [ 79.76119469957581, 11.928517378574213 ], [ 79.759878261172844, 11.943645980877363 ], [ 79.769715734593547, 11.943996032091263 ] ] ], [ [ [ 79.747559960224066, 12.007833733939719 ], [ 79.762379168763687, 12.002674271200704 ], [ 79.760363435524198, 11.989243656369695 ], [ 79.748113133214588, 11.984705419219779 ], [ 79.742796442002259, 11.977771224462515 ], [ 79.726438622944158, 11.985679120594966 ], [ 79.723545643316868, 11.977543936103814 ], [ 79.724469134642902, 11.971263456743202 ], [ 79.744517761485554, 11.964934047967972 ], [ 79.749119624770913, 11.929464816148368 ], [ 79.744126546502969, 11.929948996748863 ], [ 79.745007293951517, 11.920936843760387 ], [ 79.737492077797185, 11.917147776948411 ], [ 79.734635665503617, 11.911803525112646 ], [ 79.717480981462188, 11.92897454983563 ], [ 79.720847187947413, 11.94489838485265 ], [ 79.709620918470648, 11.949840423896489 ], [ 79.707962974211966, 11.9440945815997 ], [ 79.701219749591814, 11.951151813505419 ], [ 79.700063718765648, 11.962763964985072 ], [ 79.703394349869427, 11.967063786464621 ], [ 79.71498542483755, 11.967618362397559 ], [ 79.715970988270556, 11.971018554262912 ], [ 79.709265678168549, 11.975726317215788 ], [ 79.712369091060737, 11.986474671668816 ], [ 79.715841817745741, 11.984848011226802 ], [ 79.720552355107145, 11.992688736096341 ], [ 79.733388849915571, 11.993256036536934 ], [ 79.747559960224066, 12.007833733939719 ] ] ] ] } },
{ "type": "Feature", "properties": { "ac_no": 4, "name": "Mangalam", "district": "PUDUCHERRY", "AC_NO": 4, "AC_NAME": "Mangalam", "DIST_NAME": "PONDICHERRY" }, "geometry": { "type": "MultiPolygon", "coordinates": [ [ [ [ 79.699399583823777, 11.87431956189829 ], [ 79.699087030741907, 11.861265301652395 ], [ 79.695979238151381, 11.860394261486022 ], [ 79.699399583823777, 11.87431956189829 ] ] ], [ [ [ 79.696243464364443, 11.919177025199588 ], [ 79.718601906352944, 11.918974925052794 ], [ 79.71792695436551, 11.913352648705825 ], [ 79.706557837474293, 11.913502348954296 ], [ 79.708982501441369, 11.90331106335492 ], [ 79.705252562355952, 11.893877490753653 ], [ 79.711133235510488, 11.890751752191647 ], [ 79.71683277980901, 11.892841427689802 ], [ 79.724094593990401, 11.88864547790655 ], [ 79.722755123949867, 11.891762922021258 ], [ 79.730501009913723, 11.8917033806066 ], [ 79.731279253534808, 11.903150032548012 ], [ 79.74064997251827, 11.905469611633293 ], [ 79.734635665503617, 11.911803525112646 ], [ 79.737492077797185, 11.917147776948411 ], [ 79.761364353082513, 11.913743829514146 ], [ 79.763208829324071, 11.902988802990933 ], [ 79.771543419593172, 11.9027490068612 ], [ 79.77266625284534, 11.875823816515947 ], [ 79.770022627342428, 11.874593930665412 ], [ 79.757361418494725, 11.876111216459549 ], [ 79.757031155063828, 11.868207184713867 ], [ 79.750724178078428, 11.874093109009834 ], [ 79.751824342119733, 11.887959778121285 ], [ 79.743037826334671, 11.888648035578456 ], [ 79.717735156852086, 11.88142531132911 ], [ 79.709381935328111, 11.883695078764902 ], [ 79.707419673978848, 11.88914147200137 ], [ 79.684813311385255, 11.885956469015866 ], [ 79.685037475499144, 11.880962744135388 ], [ 79.673970479554043, 11.880662435323188 ], [ 79.673806789451817, 11.89158843106128 ], [ 79.686815728363229, 11.888868237279382 ], [ 79.687109959557063, 11.894506601598437 ], [ 79.695357553008705, 11.894797687863047 ], [ 79.696243464364443, 11.919177025199588 ] ] ] ] } },
{ "type": "Feature", "properties": { "ac_no": 5, "name": "Villianur", "district": "PUDUCHERRY", "AC_NO": 5, "AC_NAME": "Villianur", "DIST_NAME": "PONDICHERRY" }, "geometry": { "type": "Polygon", "coordinates": [ [ [ 79.76119469957581, 11.928517378574213 ], [ 79.774910808686911, 11.929299983007866 ], [ 79.769946219142753, 11.925381876072777 ], [ 79.776534424024533, 11.925840915226104 ], [ 79.780739329256676, 11.932005244446543 ], [ 79.788458061090694, 11.927174109797363 ], [ 79.790051173223105, 11.91855971256075 ], [ 79.790294240187109, 11.897185271882847 ], [ 79.781435344265788, 11.902808103111511 ], [ 79.763208829324071, 11.902988802990933 ], [ 79.761364353082513, 11.913743829514146 ], [ 79.737492077797185, 11.917147776948411 ], [ 79.745007293951517, 11.920936843760387 ], [ 79.744126546502969, 11.929948996748863 ], [ 79.749119624770913, 11.929464816148368 ], [ 79.750209760472103, 11.919951752471434 ], [ 79.756214259480544, 11.920434120937955 ], [ 79.755012231929015, 11.926056199434129 ], [ 79.76119469957581, 11.928517378574213 ] ] ] } },
{ "type": "Feature", "properties": { "ac_no": 6, "name": "Ozhukarai", "district": "PUDUCHERRY", "AC_NO": 6, "AC_NAME": "Ozhukarai", "DIST_NAME": "PONDICHERRY" }, "geometry": { "type": "Polygon", "coordinates": [ [ [ 79.79741494084692, 11.93941352671294 ], [ 79.797915932474382, 11.935781139787821 ], [ 79.806620069460678, 11.928008829044302 ], [ 79.802287170916259, 11.922629578292458 ], [ 79.790051173223105, 11.91855971256075 ], [ 79.788458061090694, 11.927174109797363 ], [ 79.780739329256676, 11.932005244446543 ], [ 79.776534424024533, 11.925840915226104 ], [ 79.769946219142753, 11.925381876072777 ], [ 79.774910808686911, 11.929299983007866 ], [ 79.769538291159279, 11.928953458035721 ], [ 79.764889264727856, 11.933329667929854 ], [ 79.77050467205305, 11.93575117797451 ], [ 79.785188515537641, 11.936525329680251 ], [ 79.794318174843966, 11.933522698413867 ], [ 79.79741494084692, 11.93941352671294 ] ] ] } },
{ "type": "Feature", "properties": { "ac_no": 7, "name": "Kadirgamam", "district": "PUDUCHERRY", "AC_NO": 7, "AC_NAME": "Kadirgamam", "DIST_NAME": "PONDICHERRY" }, "geometry": { "type": "MultiPolygon", "coordinates": [ [ [ [ 79.797915932474382, 11.935781139787821 ], [ 79.807564477218932, 11.93587638788506 ], [ 79.805188251636537, 11.931048201213571 ], [ 79.810064419837147, 11.930410077363206 ], [ 79.810925753620666, 11.924244232785156 ], [ 79.802287170916259, 11.922629578292458 ], [ 79.806620069460678, 11.928008829044302 ], [ 79.797915932474382, 11.935781139787821 ] ] ], [ [ [ 79.78910693993339, 11.950071664775578 ], [ 79.795020174841227, 11.946942361300955 ], [ 79.79741494084692, 11.93941352671294 ], [ 79.794318174843966, 11.933522698413867 ], [ 79.785188515537641, 11.936525329680251 ], [ 79.784698973179104, 11.95477294271717 ], [ 79.78910693993339, 11.950071664775578 ] ] ] ] } },
{ "type": "Feature", "properties": { "ac_no": 8, "name": "Indira Nagar", "district": "PUDUCHERRY", "AC_NO": 8, "AC_NAME": "Indira Nagar", "DIST_NAME": "PONDICHERRY" }, "geometry": { "type": "Polygon", "coordinates": [ [ [ 79.803228970640532, 11.953216647030672 ], [ 79.805428309468937, 11.949184863091034 ], [ 79.797997394863955, 11.939093115355035 ], [ 79.795020174841227, 11.946942361300955 ], [ 79.78910693993339, 11.950071664775578 ], [ 79.784698973179104, 11.95477294271717 ], [ 79.785188515537641, 11.936525329680251 ], [ 79.77050467205305, 11.93575117797451 ], [ 79.769715734593547, 11.943996032091263 ], [ 79.784655954109041, 11.959906229788714 ], [ 79.803228970640532, 11.953216647030672 ] ] ] } },
{ "type": "Feature", "properties": { "ac_no": 9, "name": "Thattanchavady", "district": "PUDUCHERRY", "AC_NO": 9, "AC_NAME": "Thattanchavady", "DIST_NAME": "PONDICHERRY" }, "geometry": { "type": "Polygon", "coordinates": [ [ [ 79.810225139478689, 11.95622650165177 ], [ 79.815172349624277, 11.95622433518497 ], [ 79.817165198715031, 11.942870347988219 ], [ 79.807925060393302, 11.938575608577537 ], [ 79.807564477218932, 11.93587638788506 ], [ 79.797915932474382, 11.935781139787821 ], [ 79.797997394863955, 11.939093115355035 ], [ 79.805428309468937, 11.949184863091034 ], [ 79.807323793458352, 11.946321612352563 ], [ 79.805490344703685, 11.952867823391387 ], [ 79.810225139478689, 11.95622650165177 ] ] ] } },
{ "type": "Feature", "properties": { "ac_no": 10, "name": "Kamaraj Nagar", "district": "PUDUCHERRY", "AC_NO": 10, "AC_NAME": "Kamraj Nagar", "DIST_NAME": "PONDICHERRY" }, "geometry": { "type": "Polygon", "coordinates": [ [ [ 79.828370875515532, 11.958715398796642 ], [ 79.829928433850228, 11.957657203417227 ], [ 79.824682689254757, 11.939504948194838 ], [ 79.820730770508703, 11.934745485016151 ], [ 79.817657385080338, 11.934449322977912 ], [ 79.807925060393302, 11.938575608577537 ], [ 79.817165198715031, 11.942870347988219 ], [ 79.816194551437434, 11.949150019757667 ], [ 79.823877160202812, 11.957557349891829 ], [ 79.828370875515532, 11.958715398796642 ] ] ] } },
{ "type": "Feature", "properties": { "ac_no": 11, "name": "Lawspet", "district": "PUDUCHERRY", "AC_NO": 11, "AC_NAME": "Lawspet", "DIST_NAME": "PONDICHERRY" }, "geometry": { "type": "Polygon", "coordinates": [ [ [ 79.805284517766324, 11.963633453820876 ], [ 79.816388921011935, 11.95856452583223 ], [ 79.816293119831698, 11.9689451016352 ], [ 79.823877160202812, 11.957557349891829 ], [ 79.816194551437434, 11.949150019757667 ], [ 79.815172349624277, 11.95622433518497 ], [ 79.810225139478689, 11.95622650165177 ], [ 79.805490344703685, 11.952867823391387 ], [ 79.807323793458352, 11.946321612352563 ], [ 79.803228970640532, 11.953216647030672 ], [ 79.805284517766324, 11.963633453820876 ] ] ] } },
{ "type": "Feature", "properties": { "ac_no": 12, "name": "Kalapet", "district": "PUDUCHERRY", "AC_NO": 12, "AC_NAME": "Kalapet", "DIST_NAME": "PONDICHERRY" }, "geometry": { "type": "MultiPolygon", "coordinates": [ [ [ [ 79.818440001205147, 11.97793088380331 ], [ 79.828370875515532, 11.958715398796642 ], [ 79.823877160202812, 11.957557349891829 ], [ 79.816293119831698, 11.9689451016352 ], [ 79.816388921011935, 11.95856452583223 ], [ 79.805284517766324, 11.963633453820876 ], [ 79.812542054772052, 11.977934431628739 ], [ 79.818440001205147, 11.97793088380331 ] ] ], [ [ [ 79.789289761313512, 12.02768672586177 ], [ 79.805314366265065, 12.024543899281582 ], [ 79.798333718826143, 12.0169512218215 ], [ 79.788317212869117, 12.019235012385934 ], [ 79.789289761313512, 12.02768672586177 ] ] ], [ [ [ 79.873792847761763, 12.042623533349456 ], [ 79.857064052963722, 12.006808414177044 ], [ 79.840469571013955, 12.013271028735062 ], [ 79.84976469838216, 12.051816568779657 ], [ 79.873792847761763, 12.042623533349456 ] ] ] ] } },
{ "type": "Feature", "properties": { "ac_no": 13, "name": "Muthialpet", "district": "PUDUCHERRY", "AC_NO": 13, "AC_NAME": "Muthialpet", "DIST_NAME": "PONDICHERRY" }, "geometry": { "type": "Polygon", "coordinates": [ [ [ 79.829928433850228, 11.957657203417227 ], [ 79.838866784874256, 11.956074491045001 ], [ 79.838381187841605, 11.947460015567287 ], [ 79.834349210547714, 11.948959104479115 ], [ 79.832812358203853, 11.941806603791804 ], [ 79.824682689254757, 11.939504948194838 ], [ 79.829928433850228, 11.957657203417227 ] ] ] } },
{ "type": "Feature", "properties": { "ac_no": 14, "name": "Raj Bhavan", "district": "PUDUCHERRY", "AC_NO": 14, "AC_NAME": "Raj Bhavan", "DIST_NAME": "PONDICHERRY" }, "geometry": { "type": "Polygon", "coordinates": [ [ [ 79.838381187841605, 11.947460015567287 ], [ 79.834963218178018, 11.92708723169045 ], [ 79.82714321458775, 11.928251114497357 ], [ 79.828752361632269, 11.933903076565798 ], [ 79.820730770508703, 11.934745485016151 ], [ 79.824682689254757, 11.939504948194838 ], [ 79.832812358203853, 11.941806603791804 ], [ 79.834349210547714, 11.948959104479115 ], [ 79.838381187841605, 11.947460015567287 ] ] ] } },
{ "type": "Feature", "properties": { "ac_no": 15, "name": "Oupalam", "district": "PUDUCHERRY", "AC_NO": 15, "AC_NAME": "Oupalam", "DIST_NAME": "PONDICHERRY" }, "geometry": { "type": "Polygon", "coordinates": [ [ [ 79.824201791179803, 11.928679007430276 ], [ 79.834963218178018, 11.92708723169045 ], [ 79.831768044759542, 11.91678237700512 ], [ 79.81333035101494, 11.920009471859714 ], [ 79.81653982904993, 11.925320423598691 ], [ 79.824201791179803, 11.928679007430276 ] ] ] } },
{ "type": "Feature", "properties": { "ac_no": 16, "name": "Orleampeth", "district": "PUDUCHERRY", "AC_NO": 16, "AC_NAME": "Orleampeth", "DIST_NAME": "PONDICHERRY" }, "geometry": { "type": "Polygon", "coordinates": [ [ [ 79.820730770508703, 11.934745485016151 ], [ 79.828752361632269, 11.933903076565798 ], [ 79.82714321458775, 11.928251114497357 ], [ 79.824201791179803, 11.928679007430276 ], [ 79.81653982904993, 11.925320423598691 ], [ 79.810108258189643, 11.930172744476636 ], [ 79.820730770508703, 11.934745485016151 ] ] ] } },
{ "type": "Feature", "properties": { "ac_no": 17, "name": "Nellithope", "district": "PUDUCHERRY", "AC_NO": 17, "AC_NAME": "Nellithope", "DIST_NAME": "PONDICHERRY" }, "geometry": { "type": "MultiPolygon", "coordinates": [ [ [ [ 79.810108258189643, 11.930172744476636 ], [ 79.81653982904993, 11.925320423598691 ], [ 79.810925753620666, 11.924244232785156 ], [ 79.810108258189643, 11.930172744476636 ] ] ], [ [ [ 79.810987267248663, 11.930582126663865 ], [ 79.805188251636537, 11.931048201213571 ], [ 79.807925060393302, 11.938575608577537 ], [ 79.817657385080338, 11.934449322977912 ], [ 79.810987267248663, 11.930582126663865 ] ] ] ] } },
{ "type": "Feature", "properties": { "ac_no": 18, "name": "Mudaliarpet", "district": "PUDUCHERRY", "AC_NO": 18, "AC_NAME": "Mudaliarpet", "DIST_NAME": "PONDICHERRY" }, "geometry": { "type": "Polygon", "coordinates": [ [ [ 79.816340762316372, 11.925159469234188 ], [ 79.807066678184697, 11.907942920829157 ], [ 79.797767320405569, 11.908844421932599 ], [ 79.798066172316055, 11.915344684809384 ], [ 79.790093892818959, 11.915158522447882 ], [ 79.790051173223105, 11.91855971256075 ], [ 79.816340762316372, 11.925159469234188 ] ] ] } },
{ "type": "Feature", "properties": { "ac_no": 19, "name": "Ariankuppam", "district": "PUDUCHERRY", "AC_NO": 19, "AC_NAME": "Ariankuppam", "DIST_NAME": "PONDICHERRY" }, "geometry": { "type": "Polygon", "coordinates": [ [ [ 79.831768044759542, 11.91678237700512 ], [ 79.824795064041041, 11.889963830966053 ], [ 79.796490106833005, 11.894865040789057 ], [ 79.7963803490739, 11.899901486164708 ], [ 79.790294240187109, 11.897185271882847 ], [ 79.790093892818959, 11.915158522447882 ], [ 79.798066172316055, 11.915344684809384 ], [ 79.797767320405569, 11.908844421932599 ], [ 79.807066678184697, 11.907942920829157 ], [ 79.81333035101494, 11.920009471859714 ], [ 79.831768044759542, 11.91678237700512 ] ] ] } },
{ "type": "Feature", "properties": { "ac_no": 20, "name": "Manavely", "district": "PUDUCHERRY", "AC_NO": 20, "AC_NAME": "Manavely", "DIST_NAME": "PONDICHERRY" }, "geometry": { "type": "Polygon", "coordinates": [ [ [ 79.824795064041041, 11.889963830966053 ], [ 79.807709259974445, 11.83640227204728 ], [ 79.807677041762133, 11.846776028291117 ], [ 79.800605341563312, 11.855314396842004 ], [ 79.781669085260148, 11.855812303794835 ], [ 79.775812933919838, 11.838457934286282 ], [ 79.766091784208527, 11.84059092293279 ], [ 79.76210509947083, 11.848439049222804 ], [ 79.770812163750406, 11.861369906296204 ], [ 79.770022627342428, 11.874593930665412 ], [ 79.779607748298986, 11.877958415848241 ], [ 79.778379134989166, 11.86322214098908 ], [ 79.785062963884741, 11.862958220545465 ], [ 79.796490106833005, 11.894865040789057 ], [ 79.824795064041041, 11.889963830966053 ] ] ] } },
{ "type": "Feature", "properties": { "ac_no": 21, "name": "Embalam", "district": "PUDUCHERRY", "AC_NO": 21, "AC_NAME": "Embalam (SC)", "DIST_NAME": "PONDICHERRY" }, "geometry": { "type": "MultiPolygon", "coordinates": [ [ [ [ 79.737695382136224, 11.842942003470739 ], [ 79.764363010244779, 11.833780109764291 ], [ 79.767749082754051, 11.822746582089167 ], [ 79.772969077960624, 11.822711870956141 ], [ 79.780154705175562, 11.831888291411587 ], [ 79.795736700688224, 11.828540307888943 ], [ 79.79746926529441, 11.824601324991193 ], [ 79.80063731875731, 11.830686054317994 ], [ 79.793571613439269, 11.832390335245805 ], [ 79.798219012997095, 11.838742806235587 ], [ 79.806987473992763, 11.833470691719072 ], [ 79.800414236527843, 11.809949181709442 ], [ 79.744204770433839, 11.813916918630923 ], [ 79.740769166863629, 11.834852485653755 ], [ 79.729471636906567, 11.837040355428087 ], [ 79.738086726621191, 11.836911950226352 ], [ 79.737695382136224, 11.842942003470739 ] ] ], [ [ [ 79.743037826334671, 11.888648035578456 ], [ 79.751824342119733, 11.887959778121285 ], [ 79.750724178078428, 11.874093109009834 ], [ 79.757031155063828, 11.868207184713867 ], [ 79.751821920245504, 11.848389328404835 ], [ 79.743080004538626, 11.848460191384788 ], [ 79.741853294194243, 11.862850563602649 ], [ 79.733763291642674, 11.865572325802248 ], [ 79.721085165647935, 11.862495055302588 ], [ 79.719620405657224, 11.85304177855528 ], [ 79.708235022728161, 11.869104578613474 ], [ 79.709381935328111, 11.883695078764902 ], [ 79.717735156852086, 11.88142531132911 ], [ 79.743037826334671, 11.888648035578456 ] ] ] ] } },
{ "type": "Feature", "properties": { "ac_no": 22, "name": "Nettapakkam", "district": "PUDUCHERRY", "AC_NO": 22, "AC_NAME": "Nettapakkam (SC)", "DIST_NAME": "PONDICHERRY" }, "geometry": { "type": "MultiPolygon", "coordinates": [ [ [ [ 79.675951002536806, 11.814311739894947 ], [ 79.684165060269379, 11.812690612981442 ], [ 79.690275944579241, 11.805389566775148 ], [ 79.681667403727772, 11.797014986352565 ], [ 79.674794381755362, 11.806696758348778 ], [ 79.675951002536806, 11.814311739894947 ] ] ], [ [ [ 79.647318871968423, 11.844217655820216 ], [ 79.661724254770604, 11.839308530164601 ], [ 79.659437030594518, 11.829465257016068 ], [ 79.671261958072989, 11.82357728406447 ], [ 79.671225187492439, 11.814853842231059 ], [ 79.646286531198541, 11.816257311625691 ], [ 79.640989279731514, 11.824145302164027 ], [ 79.647318871968423, 11.844217655820216 ] ] ], [ [ [ 79.630665791992783, 11.881208816633603 ], [ 79.634497826613483, 11.880979041649482 ], [ 79.634778431279642, 11.888769087023775 ], [ 79.641118256902075, 11.886605745358906 ], [ 79.640469416730241, 11.880584869696008 ], [ 79.648416468445305, 11.880314309557775 ], [ 79.648535223921499, 11.870468404093629 ], [ 79.662674861555672, 11.867220006997798 ], [ 79.657807327746013, 11.852644532719069 ], [ 79.647084930425251, 11.85004841300389 ], [ 79.626852826596746, 11.854277764507287 ], [ 79.628490542404677, 11.869791066204812 ], [ 79.61914904329376, 11.870148933426606 ], [ 79.619417066444498, 11.862668465277523 ], [ 79.612208697173685, 11.862583205050896 ], [ 79.601971743101501, 11.857802793064479 ], [ 79.599327114854532, 11.882945036084607 ], [ 79.608170281633249, 11.876873367611893 ], [ 79.62117168962186, 11.890557672198838 ], [ 79.626992498505047, 11.888962631020661 ], [ 79.630665791992783, 11.881208816633603 ] ] ] ] } },
{ "type": "Feature", "properties": { "ac_no": 23, "name": "Bahour", "district": "PUDUCHERRY", "AC_NO": 23, "AC_NAME": "Bahour", "DIST_NAME": "PONDICHERRY" }, "geometry": { "type": "MultiPolygon", "coordinates": [ [ [ [ 79.700347874854572, 11.8216622569077 ], [ 79.702599859096267, 11.813470707407248 ], [ 79.691957759543016, 11.814165201662775 ], [ 79.692561268487793, 11.82247603364209 ], [ 79.700347874854572, 11.8216622569077 ] ] ], [ [ [ 79.744204770433839, 11.813916918630923 ], [ 79.800414236527843, 11.809949181709442 ], [ 79.795764966380148, 11.785536737630366 ], [ 79.784367940827849, 11.78738534445813 ], [ 79.780415526555373, 11.781154813443948 ], [ 79.771870108218991, 11.782224774653685 ], [ 79.770594346152222, 11.789556784518027 ], [ 79.765842443573945, 11.791869367777167 ], [ 79.755031118591319, 11.775275800437896 ], [ 79.719828384672269, 11.784925955868232 ], [ 79.71239685852828, 11.791545881637205 ], [ 79.71392126695298, 11.796263886968859 ], [ 79.722800348157591, 11.796493581013976 ], [ 79.724461852832292, 11.81039613397445 ], [ 79.735703398193323, 11.809337781213685 ], [ 79.729471636906567, 11.837040355428087 ], [ 79.740769166863629, 11.834852485653755 ], [ 79.744204770433839, 11.813916918630923 ] ] ] ] } },
{ "type": "Feature", "properties": { "ac_no": 24, "name": "Nedungadu", "district": "KARAIKAL", "AC_NO": 24, "AC_NAME": "Nedungadu (SC)", "DIST_NAME": "KARAIKAL" }, "geometry": { "type": "Polygon", "coordinates": [ [ [ 79.748107444103312, 10.996376225582367 ], [ 79.746718188493674, 11.002630150660991 ], [ 79.755747880060653, 11.003792864349236 ], [ 79.766610515862681, 10.997389133801505 ], [ 79.785997483597043, 10.99742801868814 ], [ 79.788976672235719, 10.991962409637551 ], [ 79.786332579085297, 10.989664600441017 ], [ 79.797707906694598, 10.982551333577248 ], [ 79.804039676190143, 10.987141664855983 ], [ 79.804196374962771, 10.997692726038508 ], [ 79.813094332037849, 10.999207811191582 ], [ 79.815165298939462, 11.003769567411666 ], [ 79.820601452495112, 10.998214920082546 ], [ 79.840197044957733, 11.0021157411486 ], [ 79.839362796056264, 10.995896986756577 ], [ 79.85118366219632, 10.994342238803313 ], [ 79.854360814100346, 10.983316684517433 ], [ 79.854258161884729, 10.964585622928212 ], [ 79.810538377843898, 10.962699284144719 ], [ 79.811403953729553, 10.950838451233608 ], [ 79.805288654647768, 10.950139681601058 ], [ 79.807290958311114, 10.946142155536108 ], [ 79.785170313259414, 10.951875179795763 ], [ 79.782954842392144, 10.965356619812212 ], [ 79.762699772576525, 10.962134920889923 ], [ 79.759367835657144, 10.972245835876663 ], [ 79.754697121175241, 10.971938506956576 ], [ 79.752768782253554, 10.97694576573457 ], [ 79.758487421857069, 10.983543951292347 ], [ 79.752821297265086, 10.982925245603667 ], [ 79.75253225066291, 10.988073777083173 ], [ 79.747287123002366, 10.988357435847036 ], [ 79.748107444103312, 10.996376225582367 ] ] ] } },
{ "type": "Feature", "properties": { "ac_no": 25, "name": "Thirunallar", "district": "KARAIKAL", "AC_NO": 25, "AC_NAME": "Thirunallar", "DIST_NAME": "KARAIKAL" }, "geometry": { "type": "MultiPolygon", "coordinates": [ [ [ [ 79.739706735677373, 10.920151232193632 ], [ 79.738828035985136, 10.920128859759132 ], [ 79.739447999825416, 10.921378331944538 ], [ 79.739706735677373, 10.920151232193632 ] ] ], [ [ [ 79.722295505633156, 10.937355811521513 ], [ 79.721624851505737, 10.935038758631833 ], [ 79.720258818189961, 10.937197918449215 ], [ 79.722295505633156, 10.937355811521513 ] ] ], [ [ [ 79.730896212490279, 10.970503729463587 ], [ 79.73912044425316, 10.964597055110062 ], [ 79.746158074535572, 10.96505138091652 ], [ 79.745043986290966, 10.956648387313294 ], [ 79.762699772576525, 10.962134920889923 ], [ 79.782954842392144, 10.965356619812212 ], [ 79.785170313259414, 10.951875179795763 ], [ 79.807290958311114, 10.946142155536108 ], [ 79.811810759359105, 10.937041296118991 ], [ 79.806949561273314, 10.937488062224361 ], [ 79.810093208035198, 10.932641151667838 ], [ 79.804618154304421, 10.929255971286068 ], [ 79.807473852536305, 10.926800397620298 ], [ 79.803676201695396, 10.912115413795334 ], [ 79.806582453517478, 10.910832947282756 ], [ 79.795245169029386, 10.902726672398046 ], [ 79.789244164786453, 10.908502742707469 ], [ 79.777338493476748, 10.909010331761465 ], [ 79.776882430180081, 10.905454215439761 ], [ 79.775606452276008, 10.909095119843983 ], [ 79.764623506969315, 10.910412846076042 ], [ 79.758888414268938, 10.916665146079652 ], [ 79.744928001626022, 10.914583201153846 ], [ 79.742882042172539, 10.924347006609139 ], [ 79.724763202160091, 10.929025895928419 ], [ 79.729083726932515, 10.936418334838322 ], [ 79.723020667669743, 10.934950364267934 ], [ 79.727086102441717, 10.937839181832828 ], [ 79.723988859798112, 10.941888252540878 ], [ 79.737279149812991, 10.952461970343677 ], [ 79.73450288959674, 10.957545638220665 ], [ 79.73235698308838, 10.95122430805543 ], [ 79.719770079825366, 10.952248607087597 ], [ 79.719228007166862, 10.968466086041076 ], [ 79.730896212490279, 10.970503729463587 ] ] ] ] } },
{ "type": "Feature", "properties": { "ac_no": 26, "name": "Karaikal North", "district": "KARAIKAL", "AC_NO": 26, "AC_NAME": "Karaikal North", "DIST_NAME": "KARAIKAL" }, "geometry": { "type": "Polygon", "coordinates": [ [ [ 79.854258161884729, 10.964585622928212 ], [ 79.852593668762836, 10.923378122902079 ], [ 79.830172755368437, 10.925457571309892 ], [ 79.811810759359105, 10.937041296118991 ], [ 79.805288654647768, 10.950139681601058 ], [ 79.811403953729553, 10.950838451233608 ], [ 79.810538377843898, 10.962699284144719 ], [ 79.854258161884729, 10.964585622928212 ] ] ] } },
{ "type": "Feature", "properties": { "ac_no": 27, "name": "Karaikal South", "district": "KARAIKAL", "AC_NO": 27, "AC_NAME": "Karaikal South", "DIST_NAME": "KARAIKAL" }, "geometry": { "type": "Polygon", "coordinates": [ [ [ 79.852593668762836, 10.923378122902079 ], [ 79.853178005960274, 10.91520358138024 ], [ 79.846349067855272, 10.914930253128716 ], [ 79.842474075318364, 10.908224210978631 ], [ 79.834329816667776, 10.908100640532211 ], [ 79.830349563881327, 10.902142392757241 ], [ 79.807954675068231, 10.90153323157341 ], [ 79.804297444371628, 10.896948659553061 ], [ 79.806582453517478, 10.910832947282756 ], [ 79.803676201695396, 10.912115413795334 ], [ 79.807473852536305, 10.926800397620298 ], [ 79.804618154304421, 10.929255971286068 ], [ 79.810093208035198, 10.932641151667838 ], [ 79.806949561273314, 10.937488062224361 ], [ 79.811810759359105, 10.937041296118991 ], [ 79.830172755368437, 10.925457571309892 ], [ 79.852593668762836, 10.923378122902079 ] ] ] } },
{ "type": "Feature", "properties": { "ac_no": 28, "name": "Neravy T.R. Pattinam", "district": "KARAIKAL", "AC_NO": 28, "AC_NAME": "Neravy- T.R. Pattin", "DIST_NAME": "KARAIKAL" }, "geometry": { "type": "MultiPolygon", "coordinates": [ [ [ [ 79.809527082109184, 10.878050571376832 ], [ 79.806867141105727, 10.877670292150299 ], [ 79.80735378764723, 10.880698262714702 ], [ 79.809527082109184, 10.878050571376832 ] ] ], [ [ [ 79.763813265469878, 10.910946312222563 ], [ 79.762097507394117, 10.901596238075967 ], [ 79.767801763240811, 10.901830698527988 ], [ 79.763972008401538, 10.90736324771575 ], [ 79.764623506969315, 10.910412846076042 ], [ 79.775606452276008, 10.909095119843983 ], [ 79.776917657523938, 10.896624050159858 ], [ 79.756208258304525, 10.891815017249314 ], [ 79.763503618097559, 10.89985285012898 ], [ 79.761284433929518, 10.901813279559235 ], [ 79.756946330109088, 10.896533509114192 ], [ 79.76148064801356, 10.912807836912179 ], [ 79.763813265469878, 10.910946312222563 ] ], [ [ 79.767102679744937, 10.901250544077413 ], [ 79.766549942026245, 10.898706623711746 ], [ 79.770348020045162, 10.901451397763822 ], [ 79.768858640214148, 10.901015650152203 ], [ 79.767102679744937, 10.901250544077413 ] ], [ [ 79.758084205421824, 10.900576232407275 ], [ 79.758547153928077, 10.899859237114129 ], [ 79.758550800678961, 10.900550984840152 ], [ 79.758084205421824, 10.900576232407275 ] ], [ [ 79.770606469013387, 10.90086208281889 ], [ 79.771348211850579, 10.899985336454165 ], [ 79.771192543700977, 10.901044316042373 ], [ 79.770606469013387, 10.90086208281889 ] ], [ [ 79.770973315066499, 10.899254631895815 ], [ 79.77143660171788, 10.898583118016518 ], [ 79.771575762811267, 10.89905278625713 ], [ 79.770973315066499, 10.899254631895815 ] ], [ [ 79.770263338981977, 10.902763223543957 ], [ 79.769686209850761, 10.902590115741305 ], [ 79.77044884393905, 10.90225592407171 ], [ 79.770263338981977, 10.902763223543957 ] ], [ [ 79.769196682780716, 10.903478678298427 ], [ 79.769198211628236, 10.903809099110674 ], [ 79.768584019636876, 10.903748909284786 ], [ 79.769196682780716, 10.903478678298427 ] ] ], [ [ [ 79.853178005960274, 10.91520358138024 ], [ 79.852698906529383, 10.833387483945273 ], [ 79.85070499174202, 10.827897307214982 ], [ 79.830979967951237, 10.827444928440741 ], [ 79.828006061930296, 10.849736196468314 ], [ 79.820997176678418, 10.845624801843201 ], [ 79.807854509478091, 10.855679066735604 ], [ 79.80740655087169, 10.865505451515446 ], [ 79.81161824778394, 10.859716724147574 ], [ 79.824824391832294, 10.864891003217281 ], [ 79.822325297274688, 10.874302691715911 ], [ 79.8110247545888, 10.875636332350894 ], [ 79.811219344497204, 10.880398126572345 ], [ 79.828730708655314, 10.88352817378626 ], [ 79.804250678725907, 10.891117343890357 ], [ 79.794609175672974, 10.887602264532916 ], [ 79.790272468499666, 10.894937720599387 ], [ 79.789882820136086, 10.890402965624389 ], [ 79.783576268529998, 10.888535100714364 ], [ 79.78247692646903, 10.895384088305093 ], [ 79.793778740796313, 10.898755558522282 ], [ 79.791279934021816, 10.904896549436273 ], [ 79.795245169029386, 10.902726672398046 ], [ 79.806582453517478, 10.910832947282756 ], [ 79.804297444371628, 10.896948659553061 ], [ 79.807954675068231, 10.90153323157341 ], [ 79.830349563881327, 10.902142392757241 ], [ 79.834329816667776, 10.908100640532211 ], [ 79.842474075318364, 10.908224210978631 ], [ 79.846349067855272, 10.914930253128716 ], [ 79.853178005960274, 10.91520358138024 ] ] ] ] } },
{ "type": "Feature", "properties": { "ac_no": 29, "name": "Mahe", "district": "MAHE", "AC_NO": 29, "AC_NAME": "Mahe", "DIST_NAME": "MAHE" }, "geometry": { "type": "MultiPolygon", "coordinates": [ [ [ [ 75.541998513420708, 11.698735552403889 ], [ 75.536586828619306, 11.693938823118231 ], [ 75.53055591472372, 11.704027559923986 ], [ 75.535853136513083, 11.709934124560277 ], [ 75.544294273961611, 11.704624387805325 ], [ 75.541998513420708, 11.698735552403889 ] ] ], [ [ [ 75.538218319320038, 11.762709882854836 ], [ 75.546235181808242, 11.75634614066189 ], [ 75.543286338993425, 11.73437909711771 ], [ 75.555776701833395, 11.727695320382793 ], [ 75.555505723510407, 11.721747548810356 ], [ 75.547881325163075, 11.715416011339926 ], [ 75.537768714954268, 11.716045269673486 ], [ 75.536587168563017, 11.719389930201146 ], [ 75.532502101590751, 11.7158113991768 ], [ 75.537543752242414, 11.712174457185483 ], [ 75.531168851261555, 11.708435934970453 ], [ 75.526636465100864, 11.726135066779932 ], [ 75.531920768128998, 11.734544102028735 ], [ 75.540252521037075, 11.734741747833425 ], [ 75.54160290794789, 11.738838631897409 ], [ 75.540557433478853, 11.74857933826587 ], [ 75.531261555176684, 11.758628540874497 ], [ 75.538218319320038, 11.762709882854836 ] ] ] ] } },
{ "type": "Feature", "properties": { "ac_no": 30, "name": "Yanam", "district": "YANAM", "AC_NO": 30, "AC_NAME": "Yanam", "DIST_NAME": "YANAM" }, "geometry": { "type": "Polygon", "coordinates": [ [ [ 82.267469411983825, 16.694650883731356 ], [ 82.23904142122467, 16.716292078616561 ], [ 82.20379615836606, 16.717715542638246 ], [ 82.193411255924786, 16.721634859161497 ], [ 82.194964215126504, 16.730181789258211 ], [ 82.186363523557816, 16.729997505580457 ], [ 82.186322274353529, 16.737083723535079 ], [ 82.205580606659737, 16.734590448490451 ], [ 82.211921471898449, 16.751103952785229 ], [ 82.219858807338142, 16.750305924978477 ], [ 82.22070331750416, 16.757509991892675 ], [ 82.225997444726374, 16.758619784075847 ], [ 82.228142362879794, 16.760727572819292 ], [ 82.231982029147389, 16.754827173934984 ], [ 82.224399670508433, 16.753038763228403 ], [ 82.217475871914019, 16.732766348188477 ], [ 82.243472330583643, 16.722273577463682 ], [ 82.258062971029346, 16.720423436392537 ], [ 82.27038634775181, 16.72193045192887 ], [ 82.27596947930806, 16.727404884228065 ], [ 82.289713396356206, 16.726669781984924 ], [ 82.305494172618012, 16.748266777889512 ], [ 82.313786346362861, 16.729395269176393 ], [ 82.309146081126812, 16.71680800078866 ], [ 82.294480759179748, 16.704536242453685 ], [ 82.267469411983825, 16.694650883731356 ] ] ] } }
]
}
