{"type": "FeatureCollection", "features": [{"type": "Feature", "properties": {"name": "Cooch Behar", "state": "West Bengal"}, "geometry": {"type": "Polygon", "coordinates": [[[89.0, 26.55], [89.35, 26.55], [89.65, 26.45], [89.75, 26.25], [89.55, 26.05], [89.25, 25.95], [88.95, 26.05], [88.75, 26.25], [89.0, 26.55]]]}}, {"type": "Feature", "properties": {"name": "Alipurduar", "state": "West Bengal"}, "geometry": {"type": "Polygon", "coordinates": [[[89.2, 26.85], [89.55, 26.9], [89.85, 26.75], [89.75, 26.5], [89.55, 26.35], [89.25, 26.4], [89.05, 26.55], [89.0, 26.7], [89.2, 26.85]]]}}, {"type": "Feature", "properties": {"name": "Jalpaiguri", "state": "West Bengal"}, "geometry": {"type": "Polygon", "coordinates": [[[88.4, 27.0], [88.75, 27.05], [89.1, 26.85], [89.05, 26.55], [88.85, 26.35], [88.5, 26.3], [88.25, 26.5], [88.2, 26.75], [88.4, 27.0]]]}}, {"type": "Feature", "properties": {"name": "Darjeeling", "state": "West Bengal"}, "geometry": {"type": "Polygon", "coordinates": [[[88.0, 27.2], [88.25, 27.15], [88.45, 27.0], [88.35, 26.75], [88.15, 26.6], [87.9, 26.65], [87.75, 26.85], [87.8, 27.05], [88.0, 27.2]]]}}, {"type": "Feature", "properties": {"name": "Kalimpong", "state": "West Bengal"}, "geometry": {"type": "Polygon", "coordinates": [[[88.4, 27.15], [88.65, 27.2], [88.85, 27.05], [88.8, 26.85], [88.6, 26.75], [88.4, 26.8], [88.3, 26.95], [88.35, 27.1], [88.4, 27.15]]]}}, {"type": "Feature", "properties": {"name": "Uttar Dinajpur", "state": "West Bengal"}, "geometry": {"type": "Polygon", "coordinates": [[[87.8, 26.4], [88.15, 26.45], [88.35, 26.25], [88.3, 25.95], [88.1, 25.75], [87.8, 25.7], [87.6, 25.9], [87.55, 26.15], [87.8, 26.4]]]}}, {"type": "Feature", "properties": {"name": "Dakshin Dinajpur", "state": "West Bengal"}, "geometry": {"type": "Polygon", "coordinates": [[[88.0, 25.75], [88.3, 25.8], [88.5, 25.65], [88.45, 25.4], [88.25, 25.2], [88.0, 25.15], [87.8, 25.3], [87.75, 25.55], [88.0, 25.75]]]}}, {"type": "Feature", "properties": {"name": "Malda", "state": "West Bengal"}, "geometry": {"type": "Polygon", "coordinates": [[[87.75, 25.45], [88.1, 25.5], [88.3, 25.3], [88.25, 25.05], [88.05, 24.85], [87.75, 24.8], [87.55, 24.95], [87.5, 25.2], [87.75, 25.45]]]}}, {"type": "Feature", "properties": {"name": "Murshidabad", "state": "West Bengal"}, "geometry": {"type": "Polygon", "coordinates": [[[87.6, 24.55], [87.95, 24.65], [88.2, 24.55], [88.4, 24.35], [88.35, 24.05], [88.1, 23.85], [87.7, 23.85], [87.45, 24.1], [87.6, 24.55]]]}}, {"type": "Feature", "properties": {"name": "Birbhum", "state": "West Bengal"}, "geometry": {"type": "Polygon", "coordinates": [[[87.2, 24.5], [87.55, 24.55], [87.75, 24.35], [87.8, 24.05], [87.65, 23.8], [87.35, 23.7], [87.1, 23.85], [87.0, 24.15], [87.2, 24.5]]]}}, {"type": "Feature", "properties": {"name": "Jhargram", "state": "West Bengal"}, "geometry": {"type": "Polygon", "coordinates": [[[86.6, 22.65], [86.85, 22.7], [87.1, 22.55], [87.05, 22.3], [86.85, 22.1], [86.6, 22.05], [86.4, 22.2], [86.35, 22.45], [86.6, 22.65]]]}}, {"type": "Feature", "properties": {"name": "Paschim Medinipur", "state": "West Bengal"}, "geometry": {"type": "Polygon", "coordinates": [[[86.8, 22.8], [87.15, 22.85], [87.45, 22.65], [87.5, 22.35], [87.35, 22.1], [87.05, 21.95], [86.7, 22.1], [86.6, 22.4], [86.8, 22.8]]]}}, {"type": "Feature", "properties": {"name": "Purba Medinipur", "state": "West Bengal"}, "geometry": {"type": "Polygon", "coordinates": [[[87.35, 22.5], [87.65, 22.55], [87.95, 22.35], [88.0, 22.05], [87.85, 21.7], [87.55, 21.55], [87.2, 21.7], [87.1, 22.05], [87.35, 22.5]]]}}, {"type": "Feature", "properties": {"name": "Bankura", "state": "West Bengal"}, "geometry": {"type": "Polygon", "coordinates": [[[86.8, 23.35], [87.1, 23.45], [87.4, 23.3], [87.5, 23.05], [87.35, 22.8], [87.05, 22.7], [86.75, 22.85], [86.6, 23.1], [86.8, 23.35]]]}}, {"type": "Feature", "properties": {"name": "Purulia", "state": "West Bengal"}, "geometry": {"type": "Polygon", "coordinates": [[[86.0, 23.55], [86.35, 23.6], [86.65, 23.45], [86.7, 23.15], [86.55, 22.85], [86.25, 22.75], [86.0, 22.9], [85.85, 23.2], [86.0, 23.55]]]}}, {"type": "Feature", "properties": {"name": "Purba Bardhaman", "state": "West Bengal"}, "geometry": {"type": "Polygon", "coordinates": [[[87.45, 23.65], [87.75, 23.7], [88.0, 23.55], [88.05, 23.3], [87.9, 23.1], [87.6, 23.0], [87.35, 23.15], [87.25, 23.4], [87.45, 23.65]]]}}, {"type": "Feature", "properties": {"name": "Paschim Bardhaman", "state": "West Bengal"}, "geometry": {"type": "Polygon", "coordinates": [[[86.8, 23.85], [87.1, 23.9], [87.4, 23.75], [87.45, 23.5], [87.3, 23.3], [87.0, 23.2], [86.7, 23.35], [86.6, 23.6], [86.8, 23.85]]]}}, {"type": "Feature", "properties": {"name": "Nadia", "state": "West Bengal"}, "geometry": {"type": "Polygon", "coordinates": [[[88.25, 24.15], [88.55, 24.1], [88.7, 23.85], [88.65, 23.55], [88.45, 23.35], [88.15, 23.3], [87.95, 23.5], [88.0, 23.85], [88.25, 24.15]]]}}, {"type": "Feature", "properties": {"name": "North 24 Parganas", "state": "West Bengal"}, "geometry": {"type": "Polygon", "coordinates": [[[88.3, 23.2], [88.55, 23.15], [88.85, 22.95], [88.95, 22.65], [88.8, 22.4], [88.5, 22.3], [88.25, 22.45], [88.15, 22.75], [88.3, 23.2]]]}}, {"type": "Feature", "properties": {"name": "Howrah", "state": "West Bengal"}, "geometry": {"type": "Polygon", "coordinates": [[[87.95, 22.75], [88.1, 22.75], [88.2, 22.6], [88.15, 22.45], [88.0, 22.35], [87.85, 22.4], [87.75, 22.55], [87.8, 22.7], [87.95, 22.75]]]}}, {"type": "Feature", "properties": {"name": "Hooghly", "state": "West Bengal"}, "geometry": {"type": "Polygon", "coordinates": [[[87.65, 23.15], [87.95, 23.2], [88.2, 23.05], [88.2, 22.75], [88.05, 22.55], [87.75, 22.5], [87.5, 22.65], [87.45, 22.9], [87.65, 23.15]]]}}, {"type": "Feature", "properties": {"name": "Kolkata", "state": "West Bengal"}, "geometry": {"type": "Polygon", "coordinates": [[[88.28, 22.65], [88.38, 22.65], [88.42, 22.58], [88.4, 22.5], [88.35, 22.45], [88.28, 22.45], [88.22, 22.5], [88.22, 22.58], [88.28, 22.65]]]}}, {"type": "Feature", "properties": {"name": "South 24 Parganas", "state": "West Bengal"}, "geometry": {"type": "Polygon", "coordinates": [[[88.15, 22.4], [88.45, 22.35], [88.75, 22.1], [88.9, 21.8], [88.7, 21.55], [88.35, 21.5], [88.05, 21.65], [87.95, 21.95], [88.15, 22.4]]]}}]}